start=new Date('2022-06-22T00:00:00.000Z').valueOf();
sats=[{"PERIOD":"95.592","ELEMENT_SET_NO":"999","MEAN_MOTION":"15.06397906","TLE_LINE2":"2 45783  53.0534 170.4062 0001563  68.1593 291.9562 15.06397906112167","MEAN_ANOMALY":"291.9562","EPOCH":"2022-06-21T05:59:59.365824","RA_OF_ASC_NODE":"170.4062","INCLINATION":"53.0534","RCS_SIZE":"LARGE","OBJECT_TYPE":"PAYLOAD","NORAD_CAT_ID":"45783","SEMIMAJOR_AXIS":"6925.355","TLE_LINE1":"1 45783U 20038BF  22172.24999266  .00001153  00000-0  96268-4 0  9996","CLASSIFICATION_TYPE":"U","LAUNCH_DATE":"2020-06-13","FILE":"3498878","ECCENTRICITY":"0.00015630","OBJECT_ID":"2020-038BF","EPHEMERIS_TYPE":"0","MEAN_ELEMENT_THEORY":"SGP4","SITE":"AFETR","ARG_OF_PERICENTER":"68.1593","COUNTRY_CODE":"US","CENTER_NAME":"EARTH","GP_ID":"206546428","MEAN_MOTION_DDOT":"0.0000000000000","REV_AT_EPOCH":"11216","MEAN_MOTION_DOT":"0.00001153","REF_FRAME":"TEME","BSTAR":"0.00009626800000","OBJECT_NAME":"STARLINK-1505","DECAY_DATE":null,"APOAPSIS":"548.302","PERIAPSIS":"546.138","TIME_SYSTEM":"UTC"},{"ECCENTRICITY":"0.00017030","OBJECT_ID":"2020-038BG","FILE":"3499203","LAUNCH_DATE":"2020-06-13","CLASSIFICATION_TYPE":"U","TLE_LINE1":"1 45784U 20038BG  22172.68861560  .00001178  00000-0  98014-4 0  9998","SEMIMAJOR_AXIS":"6925.361","NORAD_CAT_ID":"45784","OBJECT_TYPE":"PAYLOAD","RCS_SIZE":"LARGE","INCLINATION":"53.0523","RA_OF_ASC_NODE":"168.4269","EPOCH":"2022-06-21T16:31:36.387840","MEAN_ANOMALY":"306.3579","TLE_LINE2":"2 45784  53.0523 168.4269 0001703  53.7567 306.3579 15.06395921112220","MEAN_MOTION":"15.06395921","ELEMENT_SET_NO":"999","PERIOD":"95.592","TIME_SYSTEM":"UTC","DECAY_DATE":null,"APOAPSIS":"548.405","PERIAPSIS":"546.047","OBJECT_NAME":"STARLINK-1510","BSTAR":"0.00009801400000","REF_FRAME":"TEME","REV_AT_EPOCH":"11222","MEAN_MOTION_DOT":"0.00001178","MEAN_MOTION_DDOT":"0.0000000000000","GP_ID":"206579183","CENTER_NAME":"EARTH","COUNTRY_CODE":"US","ARG_OF_PERICENTER":"53.7567","SITE":"AFETR","MEAN_ELEMENT_THEORY":"SGP4","EPHEMERIS_TYPE":"0"},{"CENTER_NAME":"EARTH","GP_ID":"206547422","MEAN_MOTION_DOT":"0.00001719","REV_AT_EPOCH":"11217","MEAN_MOTION_DDOT":"0.0000000000000","REF_FRAME":"TEME","MEAN_ELEMENT_THEORY":"SGP4","EPHEMERIS_TYPE":"0","SITE":"AFETR","COUNTRY_CODE":"US","ARG_OF_PERICENTER":"51.0302","OBJECT_NAME":"STARLINK-1512","BSTAR":"0.00013422000000","PERIAPSIS":"545.780","DECAY_DATE":null,"APOAPSIS":"548.593","TIME_SYSTEM":"UTC","EPOCH":"2022-06-21T08:07:21.663552","MEAN_ANOMALY":"309.0868","RCS_SIZE":"LARGE","OBJECT_TYPE":"PAYLOAD","RA_OF_ASC_NODE":"170.0044","INCLINATION":"53.0554","NORAD_CAT_ID":"45785","SEMIMAJOR_AXIS":"6925.322","PERIOD":"95.592","ELEMENT_SET_NO":"999","MEAN_MOTION":"15.06408749","TLE_LINE2":"2 45785  53.0554 170.0044 0002031  51.0302 309.0868 15.06408749112176","LAUNCH_DATE":"2020-06-13","FILE":"3498878","OBJECT_ID":"2020-038BH","ECCENTRICITY":"0.00020310","TLE_LINE1":"1 45785U 20038BH  22172.33844518  .00001719  00000-0  13422-3 0  9995","CLASSIFICATION_TYPE":"U"},{"APOAPSIS":"548.466","DECAY_DATE":null,"PERIAPSIS":"545.934","BSTAR":"0.00009168100000","OBJECT_NAME":"STARLINK-1513","TIME_SYSTEM":"UTC","GP_ID":"206545679","CENTER_NAME":"EARTH","REF_FRAME":"TEME","MEAN_MOTION_DDOT":"0.0000000000000","MEAN_MOTION_DOT":"0.00001084","REV_AT_EPOCH":"11218","EPHEMERIS_TYPE":"0","MEAN_ELEMENT_THEORY":"SGP4","ARG_OF_PERICENTER":"52.0531","COUNTRY_CODE":"US","SITE":"AFETR","FILE":"3498878","LAUNCH_DATE":"2020-06-13","ECCENTRICITY":"0.00018280","OBJECT_ID":"2020-038BJ","TLE_LINE1":"1 45786U 20038BJ  22172.39005485  .00001084  00000-0  91681-4 0  9993","CLASSIFICATION_TYPE":"U","MEAN_ANOMALY":"308.0623","EPOCH":"2022-06-21T09:21:40.739040","NORAD_CAT_ID":"45786","SEMIMAJOR_AXIS":"6925.335","INCLINATION":"53.0551","RA_OF_ASC_NODE":"169.7861","OBJECT_TYPE":"PAYLOAD","RCS_SIZE":"LARGE","ELEMENT_SET_NO":"999","PERIOD":"95.592","MEAN_MOTION":"15.06404410","TLE_LINE2":"2 45786  53.0551 169.7861 0001828  52.0531 308.0623 15.06404410112184"},{"TIME_SYSTEM":"UTC","OBJECT_NAME":"STARLINK-1517","BSTAR":"0.00008560200000","APOAPSIS":"548.348","DECAY_DATE":null,"PERIAPSIS":"546.086","MEAN_MOTION_DOT":"0.00000994","REV_AT_EPOCH":"11221","MEAN_MOTION_DDOT":"0.0000000000000","REF_FRAME":"TEME","CENTER_NAME":"EARTH","GP_ID":"206578931","SITE":"AFETR","COUNTRY_CODE":"US","ARG_OF_PERICENTER":"53.8229","MEAN_ELEMENT_THEORY":"SGP4","EPHEMERIS_TYPE":"0","OBJECT_ID":"2020-038BK","ECCENTRICITY":"0.00016330","LAUNCH_DATE":"2020-06-13","FILE":"3499203","CLASSIFICATION_TYPE":"U","TLE_LINE1":"1 45787U 20038BK  22172.59645791  .00000994  00000-0  85602-4 0  9991","OBJECT_TYPE":"PAYLOAD","RCS_SIZE":"LARGE","RA_OF_ASC_NODE":"168.8578","INCLINATION":"53.0547","NORAD_CAT_ID":"45787","SEMIMAJOR_AXIS":"6925.352","EPOCH":"2022-06-21T14:18:53.963424","MEAN_ANOMALY":"306.2911","MEAN_MOTION":"15.06398784","TLE_LINE2":"2 45787  53.0547 168.8578 0001633  53.8229 306.2911 15.06398784112212","PERIOD":"95.592","ELEMENT_SET_NO":"999"},{"ECCENTRICITY":"0.00015000","OBJECT_ID":"2020-055A","FILE":"3498878","LAUNCH_DATE":"2020-08-07","CLASSIFICATION_TYPE":"U","TLE_LINE1":"1 46027U 20055A   22172.50339521  .00000385  00000-0  44719-4 0  9998","SEMIMAJOR_AXIS":"6925.356","NORAD_CAT_ID":"46027","RCS_SIZE":"LARGE","OBJECT_TYPE":"PAYLOAD","INCLINATION":"53.0562","RA_OF_ASC_NODE":"99.2544","EPOCH":"2022-06-21T12:04:53.346144","MEAN_ANOMALY":"295.3756","MEAN_MOTION":"15.06397692","TLE_LINE2":"2 46027  53.0562  99.2544 0001500  64.7388 295.3756 15.06397692104322","ELEMENT_SET_NO":"999","PERIOD":"95.592","TIME_SYSTEM":"UTC","APOAPSIS":"548.259","DECAY_DATE":null,"PERIAPSIS":"546.182","OBJECT_NAME":"STARLINK-1522","BSTAR":"0.00004471900000","REF_FRAME":"TEME","MEAN_MOTION_DOT":"0.00000385","REV_AT_EPOCH":"10432","MEAN_MOTION_DDOT":"0.0000000000000","GP_ID":"206545953","CENTER_NAME":"EARTH","COUNTRY_CODE":"US","ARG_OF_PERICENTER":"64.7388","SITE":"AFETR","MEAN_ELEMENT_THEORY":"SGP4","EPHEMERIS_TYPE":"0"},{"ELEMENT_SET_NO":"999","PERIOD":"95.593","TLE_LINE2":"2 46028  53.0549  99.1863 0001572  68.2905 291.8251 15.06392221104340","MEAN_MOTION":"15.06392221","EPOCH":"2022-06-21T12:26:06.966816","MEAN_ANOMALY":"291.8251","SEMIMAJOR_AXIS":"6925.372","NORAD_CAT_ID":"46028","OBJECT_TYPE":"PAYLOAD","RCS_SIZE":"LARGE","INCLINATION":"53.0549","RA_OF_ASC_NODE":"99.1863","TLE_LINE1":"1 46028U 20055B   22172.51813619  .00003064  00000-0  22453-3 0  9992","CLASSIFICATION_TYPE":"U","FILE":"3498878","LAUNCH_DATE":"2020-08-07","OBJECT_ID":"2020-055B","ECCENTRICITY":"0.00015720","MEAN_ELEMENT_THEORY":"SGP4","EPHEMERIS_TYPE":"0","COUNTRY_CODE":"US","ARG_OF_PERICENTER":"68.2905","SITE":"AFETR","GP_ID":"206547204","CENTER_NAME":"EARTH","REF_FRAME":"TEME","REV_AT_EPOCH":"10434","MEAN_MOTION_DOT":"0.00003064","MEAN_MOTION_DDOT":"0.0000000000000","APOAPSIS":"548.326","DECAY_DATE":null,"PERIAPSIS":"546.149","OBJECT_NAME":"STARLINK-1523","BSTAR":"0.00022453000000","TIME_SYSTEM":"UTC"},{"TIME_SYSTEM":"UTC","OBJECT_NAME":"STARLINK-1526","BSTAR":"0.00040513000000","DECAY_DATE":null,"APOAPSIS":"548.469","PERIAPSIS":"545.911","SITE":"AFETR","COUNTRY_CODE":"US","ARG_OF_PERICENTER":"65.0707","MEAN_ELEMENT_THEORY":"SGP4","EPHEMERIS_TYPE":"0","MEAN_MOTION_DOT":"0.00005759","REV_AT_EPOCH":"10439","MEAN_MOTION_DDOT":"0.0000000000000","REF_FRAME":"TEME","CENTER_NAME":"EARTH","GP_ID":"206579952","CLASSIFICATION_TYPE":"U","TLE_LINE1":"1 46029U 20055C   22172.90884458  .00005759  00000-0  40513-3 0  9995","ECCENTRICITY":"0.00018470","OBJECT_ID":"2020-055C","LAUNCH_DATE":"2020-08-07","FILE":"3499203","TLE_LINE2":"2 46029  53.0526  97.4411 0001847  65.0707 295.0474 15.06407602104394","MEAN_MOTION":"15.06407602","PERIOD":"95.592","ELEMENT_SET_NO":"999","RCS_SIZE":"LARGE","OBJECT_TYPE":"PAYLOAD","RA_OF_ASC_NODE":"97.4411","INCLINATION":"53.0526","NORAD_CAT_ID":"46029","SEMIMAJOR_AXIS":"6925.325","EPOCH":"2022-06-21T21:48:44.171712","MEAN_ANOMALY":"295.0474"},{"OBJECT_ID":"2020-055D","ECCENTRICITY":"0.00014460","LAUNCH_DATE":"2020-08-07","FILE":"3498878","CLASSIFICATION_TYPE":"U","TLE_LINE1":"1 46030U 20055D   22172.52918568  .00000925  00000-0  80992-4 0  9991","OBJECT_TYPE":"PAYLOAD","RCS_SIZE":"LARGE","RA_OF_ASC_NODE":"99.1516","INCLINATION":"53.0569","NORAD_CAT_ID":"46030","SEMIMAJOR_AXIS":"6925.330","EPOCH":"2022-06-21T12:42:01.642752","MEAN_ANOMALY":"296.9442","MEAN_MOTION":"15.06405918","TLE_LINE2":"2 46030  53.0569  99.1516 0001446  63.1695 296.9442 15.06405918104290","PERIOD":"95.592","ELEMENT_SET_NO":"999","TIME_SYSTEM":"UTC","OBJECT_NAME":"STARLINK-1534","BSTAR":"0.00008099200000","APOAPSIS":"548.197","DECAY_DATE":null,"PERIAPSIS":"546.194","REV_AT_EPOCH":"10429","MEAN_MOTION_DOT":"0.00000925","MEAN_MOTION_DDOT":"0.0000000000000","REF_FRAME":"TEME","CENTER_NAME":"EARTH","GP_ID":"206546203","SITE":"AFETR","COUNTRY_CODE":"US","ARG_OF_PERICENTER":"63.1695","MEAN_ELEMENT_THEORY":"SGP4","EPHEMERIS_TYPE":"0"},{"LAUNCH_DATE":"2020-08-07","FILE":"3499203","OBJECT_ID":"2020-055E","ECCENTRICITY":"0.00013670","TLE_LINE1":"1 46031U 20055E   22172.79827008 -.00000314  00000-0 -21867-5 0  9990","CLASSIFICATION_TYPE":"U","MEAN_ANOMALY":"296.7217","EPOCH":"2022-06-21T19:09:30.534912","RA_OF_ASC_NODE":"97.9403","INCLINATION":"53.0553","RCS_SIZE":"LARGE","OBJECT_TYPE":"PAYLOAD","NORAD_CAT_ID":"46031","SEMIMAJOR_AXIS":"6925.362","PERIOD":"95.592","ELEMENT_SET_NO":"999","TLE_LINE2":"2 46031  53.0553  97.9403 0001367  63.3912 296.7217 15.06395632104368","MEAN_MOTION":"15.06395632","BSTAR":"-0.00000218670000","OBJECT_NAME":"STARLINK-1544","DECAY_DATE":null,"APOAPSIS":"548.174","PERIAPSIS":"546.280","TIME_SYSTEM":"UTC","CENTER_NAME":"EARTH","GP_ID":"206578456","MEAN_MOTION_DDOT":"0.0000000000000","MEAN_MOTION_DOT":"-0.00000314","REV_AT_EPOCH":"10436","REF_FRAME":"TEME","EPHEMERIS_TYPE":"0","MEAN_ELEMENT_THEORY":"SGP4","SITE":"AFETR","ARG_OF_PERICENTER":"63.3912","COUNTRY_CODE":"US"}];
